{
  "type": "FeatureCollection",
  "features": [
    {
      "type": "Feature",
      "properties": {
        "norad_id": 66052,
        "name": "HRC MONOBLOCK CAMERA",
        "group": "stations",
        "lat": 4.228743202051368,
        "lon": 176.07271066763187,
        "alt_km": 409.1791577783715,
        "timestamp": "2025-12-06T11:28:09.809348+00:00",
        "meta_object_name": "HRC MONOBLOCK CAMERA",
        "meta_object_id": "1998-067XR",
        "meta_epoch": "2025-12-05T21:33:04.932864",
        "meta_mean_motion": 15.5347422,
        "meta_eccentricity": 0.00041965,
        "meta_inclination": 51.6285,
        "meta_ra_of_asc_node": 175.6042,
        "meta_arg_of_pericenter": 157.7899,
        "meta_mean_anomaly": 202.3273,
        "meta_ephemeris_type": 0,
        "meta_classification_type": "U",
        "meta_norad_cat_id": 66052,
        "meta_element_set_no": 999,
        "meta_rev_at_epoch": 777,
        "meta_bstar": 0.00068980768,
        "meta_mean_motion_dot": 0.00044373,
        "meta_mean_motion_ddot": 0,
        "tle_line1": "1 66052U 98067XR  25339.89797376  .00044373  00000+0  68981-3 0  9992",
        "tle_line2": "2 66052  51.6285 175.6042 0004196 157.7899 202.3273 15.53474220  7772"
      },
      "geometry": {
        "type": "Point",
        "coordinates": [
          176.07271066763187,
          4.228743202051368
        ]
      }
    },
    {
      "type": "Feature",
      "properties": {
        "norad_id": 66174,
        "name": "HTV-X1",
        "group": "stations",
        "lat": -2.3682188556635704,
        "lon": 171.6032135041455,
        "alt_km": 421.62665582088175,
        "timestamp": "2025-12-06T11:28:09.809358+00:00",
        "meta_object_name": "HTV-X1",
        "meta_object_id": "2025-241A",
        "meta_epoch": "2025-12-05T21:33:01.156320",
        "meta_mean_motion": 15.49346308,
        "meta_eccentricity": 0.00035522,
        "meta_inclination": 51.6298,
        "meta_ra_of_asc_node": 176.3533,
        "meta_arg_of_pericenter": 209.1564,
        "meta_mean_anomaly": 150.9226,
        "meta_ephemeris_type": 0,
        "meta_classification_type": "U",
        "meta_norad_cat_id": 66174,
        "meta_element_set_no": 999,
        "meta_rev_at_epoch": 51,
        "meta_bstar": 0.0002548829,
        "meta_mean_motion_dot": 0.00013789,
        "meta_mean_motion_ddot": 0,
        "tle_line1": "1 66174U 25241A   25339.89793005  .00013789  00000+0  25488-3 0  9998",
        "tle_line2": "2 66174  51.6298 176.3533 0003552 209.1564 150.9226 15.49346308   511"
      },
      "geometry": {
        "type": "Point",
        "coordinates": [
          171.6032135041455,
          -2.3682188556635704
        ]
      }
    },
    {
      "type": "Feature",
      "properties": {
        "norad_id": 66515,
        "name": "SZ-21 MODULE",
        "group": "stations",
        "lat": 37.172301013406745,
        "lon": 113.3642723020466,
        "alt_km": 379.46983483981603,
        "timestamp": "2025-12-06T11:28:09.809368+00:00",
        "meta_object_name": "SZ-21 MODULE",
        "meta_object_id": "2025-246C",
        "meta_epoch": "2025-12-05T12:10:17.025600",
        "meta_mean_motion": 15.61972458,
        "meta_eccentricity": 0.000603,
        "meta_inclination": 41.4776,
        "meta_ra_of_asc_node": 60.1494,
        "meta_arg_of_pericenter": 219.3277,
        "meta_mean_anomaly": 140.7125,
        "meta_ephemeris_type": 0,
        "meta_classification_type": "U",
        "meta_norad_cat_id": 66515,
        "meta_element_set_no": 999,
        "meta_rev_at_epoch": 331,
        "meta_bstar": 0.00043081448,
        "meta_mean_motion_dot": 0.00038539,
        "meta_mean_motion_ddot": 0,
        "tle_line1": "1 66515U 25246C   25339.50714150  .00038539  00000+0  43081-3 0  9993",
        "tle_line2": "2 66515  41.4776  60.1494 0006030 219.3277 140.7125 15.61972458  3313"
      },
      "geometry": {
        "type": "Point",
        "coordinates": [
          113.3642723020466,
          37.172301013406745
        ]
      }
    },
    {
      "type": "Feature",
      "properties": {
        "norad_id": 66645,
        "name": "SHENZHOU-22",
        "group": "stations",
        "lat": -31.32299246110476,
        "lon": -81.72923198081818,
        "alt_km": 395.9759885826825,
        "timestamp": "2025-12-06T11:28:09.809378+00:00",
        "meta_object_name": "SHENZHOU-22",
        "meta_object_id": "2025-272A",
        "meta_epoch": "2025-12-05T22:10:41.358720",
        "meta_mean_motion": 15.58760067,
        "meta_eccentricity": 0.00096689,
        "meta_inclination": 41.4683,
        "meta_ra_of_asc_node": 58.072,
        "meta_arg_of_pericenter": 337.6224,
        "meta_mean_anomaly": 22.4191,
        "meta_ephemeris_type": 0,
        "meta_classification_type": "U",
        "meta_norad_cat_id": 66645,
        "meta_element_set_no": 999,
        "meta_rev_at_epoch": 26299,
        "meta_bstar": 0.00039600638,
        "meta_mean_motion_dot": 0.00031271,
        "meta_mean_motion_ddot": 0,
        "tle_line1": "1 66645U 25272A   25339.92408980  .00031271  00000+0  39601-3 0  9992",
        "tle_line2": "2 66645  41.4683  58.0720 0009668 337.6224  22.4191 15.58760067262995"
      },
      "geometry": {
        "type": "Point",
        "coordinates": [
          -81.72923198081818,
          -31.32299246110476
        ]
      }
    },
    {
      "type": "Feature",
      "properties": {
        "norad_id": 66646,
        "name": "CZ-2F R/B",
        "group": "stations",
        "lat": -13.081615437888233,
        "lon": -115.51066204108064,
        "alt_km": 163.9517312257458,
        "timestamp": "2025-12-06T11:28:09.809389+00:00",
        "meta_object_name": "CZ-2F R/B",
        "meta_object_id": "2025-272B",
        "meta_epoch": "2025-12-06T06:14:24.329184",
        "meta_mean_motion": 16.29192753,
        "meta_eccentricity": 0.0047604,
        "meta_inclination": 41.4551,
        "meta_ra_of_asc_node": 50.6938,
        "meta_arg_of_pericenter": 215.5686,
        "meta_mean_anomaly": 144.2,
        "meta_ephemeris_type": 0,
        "meta_classification_type": "U",
        "meta_norad_cat_id": 66646,
        "meta_element_set_no": 999,
        "meta_rev_at_epoch": 179,
        "meta_bstar": 0.00054441,
        "meta_mean_motion_dot": 0.03508524,
        "meta_mean_motion_ddot": 7.787e-06,
        "tle_line1": "1 66646U 25272B   25340.26000381  .03508524  77870-5  54441-3 0  9992",
        "tle_line2": "2 66646  41.4551  50.6938 0047604 215.5686 144.2000 16.29192753  1798"
      },
      "geometry": {
        "type": "Point",
        "coordinates": [
          -115.51066204108064,
          -13.081615437888233
        ]
      }
    },
    {
      "type": "Feature",
      "properties": {
        "norad_id": 66664,
        "name": "SOYUZ-MS 28",
        "group": "stations",
        "lat": -2.3682167819213866,
        "lon": 171.6032151485366,
        "alt_km": 421.6266556228211,
        "timestamp": "2025-12-06T11:28:09.809399+00:00",
        "meta_object_name": "SOYUZ-MS 28",
        "meta_object_id": "2025-275A",
        "meta_epoch": "2025-12-05T21:33:01.156320",
        "meta_mean_motion": 15.49346308,
        "meta_eccentricity": 0.00035522,
        "meta_inclination": 51.6298,
        "meta_ra_of_asc_node": 176.3533,
        "meta_arg_of_pericenter": 209.1564,
        "meta_mean_anomaly": 150.9226,
        "meta_ephemeris_type": 0,
        "meta_classification_type": "U",
        "meta_norad_cat_id": 66664,
        "meta_element_set_no": 999,
        "meta_rev_at_epoch": 128,
        "meta_bstar": 0.0002548829,
        "meta_mean_motion_dot": 0.00013789,
        "meta_mean_motion_ddot": 0,
        "tle_line1": "1 66664U 25275A   25339.89793005  .00013789  00000+0  25488-3 0  9999",
        "tle_line2": "2 66664  51.6298 176.3533 0003552 209.1564 150.9226 15.49346308  1280"
      },
      "geometry": {
        "type": "Point",
        "coordinates": [
          171.6032151485366,
          -2.3682167819213866
        ]
      }
    },
    {
      "type": "Feature",
      "properties": {
        "norad_id": 66906,
        "name": "1998-067XS",
        "group": "stations",
        "lat": 5.220221022644583,
        "lon": 177.61226901133185,
        "alt_km": 419.2699467731427,
        "timestamp": "2025-12-06T11:28:09.809410+00:00",
        "meta_object_name": "1998-067XS",
        "meta_object_id": "1998-067XS",
        "meta_epoch": "2025-12-05T23:03:45.207360",
        "meta_mean_motion": 15.50072979,
        "meta_eccentricity": 0.00042511,
        "meta_inclination": 51.6296,
        "meta_ra_of_asc_node": 176.0242,
        "meta_arg_of_pericenter": 173.878,
        "meta_mean_anomaly": 186.2262,
        "meta_ephemeris_type": 0,
        "meta_classification_type": "U",
        "meta_norad_cat_id": 66906,
        "meta_element_set_no": 999,
        "meta_rev_at_epoch": 56,
        "meta_bstar": 0.00063070606,
        "meta_mean_motion_dot": 0.00035803,
        "meta_mean_motion_ddot": 0,
        "tle_line1": "1 66906U 98067XS  25339.96093990  .00035803  00000+0  63071-3 0  9992",
        "tle_line2": "2 66906  51.6296 176.0242 0004251 173.8780 186.2262 15.50072979   569"
      },
      "geometry": {
        "type": "Point",
        "coordinates": [
          177.61226901133185,
          5.220221022644583
        ]
      }
    }
  ]
}